STARLINK-36789          
1 68118U 26044T   26095.83336806 -.01860895  00000+0 -43749-1 0  9995
2 68118  97.2854  57.1762 0001641  84.5741 290.8571 15.45111031  5717
STARLINK-36850          
1 68119U 26044U   26095.83336806 -.01917656  00000+0 -43745-1 0  9990
2 68119  97.2849  57.1756 0001871  79.5679 301.0402 15.46082424  5716
STARLINK-36868          
1 68120U 26044V   26095.83336806 -.01869210  00000+0 -43122-1 0  9993
2 68120  97.2855  57.1868 0001705  80.6067 319.0829 15.45675282  5710
STARLINK-36855          
1 68121U 26044W   26095.83336806 -.01953853  00000+0 -40941-1 0  9997
2 68121  97.2849  57.1745 0001741  90.5788 286.0306 15.48584531  5710
STARLINK-36366          
1 68122U 26044X   26095.83336806 -.01846127  00000+0 -38158-1 0  9990
2 68122  97.2852  57.1779 0001675  76.3152 309.2778 15.49340273  5765
STARLINK-36922          
1 68123U 26044Y   26095.83336806 -.01659536  00000+0 -33601-1 0  9995
2 68123  97.2853  57.1885 0001849  61.9156 348.8793 15.49555106  5761
STARLINK-36938          
1 68124U 26044Z   26095.60920167  .00254377  00000+0  16463-2 0  9999
2 68124  97.2841  57.1684 0002657  77.2423 282.9139 15.75325059  5720
STARLINK-36839          
1 68125U 26044AA  26095.83336806 -.01913933  00000+0 -39453-1 0  9992
2 68125  97.2854  57.1863 0002105  73.7243 331.9935 15.48981297  5713
ECHOSTAR 25             
1 68126U 26045A   26095.71947562  .00000060  00000+0  00000+0 0  9997
2 68126   0.0325 282.3295 0001813 153.8749 247.9647  1.00271338   268
ICOR SV                 
1 68127U 26046A   26095.58423866  .00566370  12338-4  60397-3 0  9992
2 68127 123.0715 329.2342 0083893 239.5685 119.7085 16.02418156  3883
FIREFLY ALPHA R/B       
1 68128U 26046B   26095.54007278  .00040703  00000+0  53413-3 0  9990
2 68128 123.0914 323.4742 0017486  32.2847 327.9281 15.58008614  3827
GUOWANG GROUP 20 OBJECT*
1 68129U 26047A   26095.90842571 -.00000099  00000+0  41743-4 0  9994
2 68129  50.0058 320.7505 0001456 143.9255 216.1737 13.80029300  3379
GUOWANG GROUP 20 OBJECT*
1 68130U 26047B   26095.61501207 -.00000064  00000+0  74072-4 0  9995
2 68130  50.0035 321.8683 0000603 277.2278  82.8548 13.81038294  3320
GUOWANG GROUP 20 OBJECT*
1 68131U 26047C   26095.61181955 -.00000095  00000+0  44686-4 0  9992
2 68131  49.9927 321.8947 0003062 305.5324  54.5285 13.81638668  3336
GUOWANG GROUP 20 OBJECT*
1 68132U 26047D   26095.82565236 -.00000087  00000+0  52378-4 0  9992
2 68132  50.0080 320.9711 0000467 277.3673  82.7169 13.80675205  3351
GUOWANG GROUP 20 OBJECT*
1 68133U 26047E   26095.60511462 -.00000106  00000+0  34459-4 0  9993
2 68133  49.9866 321.8183 0000838 211.5594 148.5251 13.82123871  3338
