[{"OBJECT_NAME":"STARLINK-36789","OBJECT_ID":"2026-044T","EPOCH":"2026-04-05T20:00:03.000384","MEAN_MOTION":15.45111031,"ECCENTRICITY":0.0001641,"INCLINATION":97.2854,"RA_OF_ASC_NODE":57.1762,"ARG_OF_PERICENTER":84.5741,"MEAN_ANOMALY":290.8571,"EPHEMERIS_TYPE":0,"CLASSIFICATION_TYPE":"U","NORAD_CAT_ID":68118,"ELEMENT_SET_NO":999,"REV_AT_EPOCH":571,"BSTAR":-0.043749,"MEAN_MOTION_DOT":-0.01860895,"MEAN_MOTION_DDOT":0},{"OBJECT_NAME":"STARLINK-36850","OBJECT_ID":"2026-044U","EPOCH":"2026-04-05T20:00:03.000384","MEAN_MOTION":15.46082424,"ECCENTRICITY":0.0001871,"INCLINATION":97.2849,"RA_OF_ASC_NODE":57.1756,"ARG_OF_PERICENTER":79.5679,"MEAN_ANOMALY":301.0402,"EPHEMERIS_TYPE":0,"CLASSIFICATION_TYPE":"U","NORAD_CAT_ID":68119,"ELEMENT_SET_NO":999,"REV_AT_EPOCH":571,"BSTAR":-0.043745,"MEAN_MOTION_DOT":-0.01917656,"MEAN_MOTION_DDOT":0},{"OBJECT_NAME":"STARLINK-36868","OBJECT_ID":"2026-044V","EPOCH":"2026-04-05T20:00:03.000384","MEAN_MOTION":15.45675282,"ECCENTRICITY":0.0001705,"INCLINATION":97.2855,"RA_OF_ASC_NODE":57.1868,"ARG_OF_PERICENTER":80.6067,"MEAN_ANOMALY":319.0829,"EPHEMERIS_TYPE":0,"CLASSIFICATION_TYPE":"U","NORAD_CAT_ID":68120,"ELEMENT_SET_NO":999,"REV_AT_EPOCH":571,"BSTAR":-0.043122,"MEAN_MOTION_DOT":-0.0186921,"MEAN_MOTION_DDOT":0},{"OBJECT_NAME":"STARLINK-36855","OBJECT_ID":"2026-044W","EPOCH":"2026-04-05T20:00:03.000384","MEAN_MOTION":15.48584531,"ECCENTRICITY":0.0001741,"INCLINATION":97.2849,"RA_OF_ASC_NODE":57.1745,"ARG_OF_PERICENTER":90.5788,"MEAN_ANOMALY":286.0306,"EPHEMERIS_TYPE":0,"CLASSIFICATION_TYPE":"U","NORAD_CAT_ID":68121,"ELEMENT_SET_NO":999,"REV_AT_EPOCH":571,"BSTAR":-0.040941,"MEAN_MOTION_DOT":-0.01953853,"MEAN_MOTION_DDOT":0},{"OBJECT_NAME":"STARLINK-36366","OBJECT_ID":"2026-044X","EPOCH":"2026-04-05T20:00:03.000384","MEAN_MOTION":15.49340273,"ECCENTRICITY":0.0001675,"INCLINATION":97.2852,"RA_OF_ASC_NODE":57.1779,"ARG_OF_PERICENTER":76.3152,"MEAN_ANOMALY":309.2778,"EPHEMERIS_TYPE":0,"CLASSIFICATION_TYPE":"U","NORAD_CAT_ID":68122,"ELEMENT_SET_NO":999,"REV_AT_EPOCH":576,"BSTAR":-0.038158,"MEAN_MOTION_DOT":-0.01846127,"MEAN_MOTION_DDOT":0},{"OBJECT_NAME":"STARLINK-36922","OBJECT_ID":"2026-044Y","EPOCH":"2026-04-05T20:00:03.000384","MEAN_MOTION":15.49555106,"ECCENTRICITY":0.0001849,"INCLINATION":97.2853,"RA_OF_ASC_NODE":57.1885,"ARG_OF_PERICENTER":61.9156,"MEAN_ANOMALY":348.8793,"EPHEMERIS_TYPE":0,"CLASSIFICATION_TYPE":"U","NORAD_CAT_ID":68123,"ELEMENT_SET_NO":999,"REV_AT_EPOCH":576,"BSTAR":-0.033601,"MEAN_MOTION_DOT":-0.01659536,"MEAN_MOTION_DDOT":0},{"OBJECT_NAME":"STARLINK-36938","OBJECT_ID":"2026-044Z","EPOCH":"2026-04-05T14:37:15.024288","MEAN_MOTION":15.75325059,"ECCENTRICITY":0.0002657,"INCLINATION":97.2841,"RA_OF_ASC_NODE":57.1684,"ARG_OF_PERICENTER":77.2423,"MEAN_ANOMALY":282.9139,"EPHEMERIS_TYPE":0,"CLASSIFICATION_TYPE":"U","NORAD_CAT_ID":68124,"ELEMENT_SET_NO":999,"REV_AT_EPOCH":572,"BSTAR":0.0016463,"MEAN_MOTION_DOT":0.00254377,"MEAN_MOTION_DDOT":0},{"OBJECT_NAME":"STARLINK-36839","OBJECT_ID":"2026-044AA","EPOCH":"2026-04-05T20:00:03.000384","MEAN_MOTION":15.48981297,"ECCENTRICITY":0.0002105,"INCLINATION":97.2854,"RA_OF_ASC_NODE":57.1863,"ARG_OF_PERICENTER":73.7243,"MEAN_ANOMALY":331.9935,"EPHEMERIS_TYPE":0,"CLASSIFICATION_TYPE":"U","NORAD_CAT_ID":68125,"ELEMENT_SET_NO":999,"REV_AT_EPOCH":571,"BSTAR":-0.039453,"MEAN_MOTION_DOT":-0.01913933,"MEAN_MOTION_DDOT":0},{"OBJECT_NAME":"ECHOSTAR 25","OBJECT_ID":"2026-045A","EPOCH":"2026-04-05T17:16:02.693568","MEAN_MOTION":1.00271338,"ECCENTRICITY":0.0001813,"INCLINATION":0.0325,"RA_OF_ASC_NODE":282.3295,"ARG_OF_PERICENTER":153.8749,"MEAN_ANOMALY":247.9647,"EPHEMERIS_TYPE":0,"CLASSIFICATION_TYPE":"U","NORAD_CAT_ID":68126,"ELEMENT_SET_NO":999,"REV_AT_EPOCH":26,"BSTAR":0,"MEAN_MOTION_DOT":6.0e-7,"MEAN_MOTION_DDOT":0},{"OBJECT_NAME":"ICOR SV","OBJECT_ID":"2026-046A","EPOCH":"2026-04-05T14:01:18.220224","MEAN_MOTION":16.02418156,"ECCENTRICITY":0.0083893,"INCLINATION":123.0715,"RA_OF_ASC_NODE":329.2342,"ARG_OF_PERICENTER":239.5685,"MEAN_ANOMALY":119.7085,"EPHEMERIS_TYPE":0,"CLASSIFICATION_TYPE":"U","NORAD_CAT_ID":68127,"ELEMENT_SET_NO":999,"REV_AT_EPOCH":388,"BSTAR":0.00060397,"MEAN_MOTION_DOT":0.0056637,"MEAN_MOTION_DDOT":1.2338e-5},{"OBJECT_NAME":"FIREFLY ALPHA R/B","OBJECT_ID":"2026-046B","EPOCH":"2026-04-05T12:57:42.288192","MEAN_MOTION":15.58008614,"ECCENTRICITY":0.0017486,"INCLINATION":123.0914,"RA_OF_ASC_NODE":323.4742,"ARG_OF_PERICENTER":32.2847,"MEAN_ANOMALY":327.9281,"EPHEMERIS_TYPE":0,"CLASSIFICATION_TYPE":"U","NORAD_CAT_ID":68128,"ELEMENT_SET_NO":999,"REV_AT_EPOCH":382,"BSTAR":0.0005341256,"MEAN_MOTION_DOT":0.00040703,"MEAN_MOTION_DDOT":0},{"OBJECT_NAME":"GUOWANG GROUP 20 OBJECT A","OBJECT_ID":"2026-047A","EPOCH":"2026-04-05T21:48:07.981344","MEAN_MOTION":13.800293,"ECCENTRICITY":0.0001456,"INCLINATION":50.0058,"RA_OF_ASC_NODE":320.7505,"ARG_OF_PERICENTER":143.9255,"MEAN_ANOMALY":216.1737,"EPHEMERIS_TYPE":0,"CLASSIFICATION_TYPE":"U","NORAD_CAT_ID":68129,"ELEMENT_SET_NO":999,"REV_AT_EPOCH":337,"BSTAR":4.1743e-5,"MEAN_MOTION_DOT":-9.9e-7,"MEAN_MOTION_DDOT":0},{"OBJECT_NAME":"GUOWANG GROUP 20 OBJECT B","OBJECT_ID":"2026-047B","EPOCH":"2026-04-05T14:45:37.042848","MEAN_MOTION":13.81038294,"ECCENTRICITY":6.03e-5,"INCLINATION":50.0035,"RA_OF_ASC_NODE":321.8683,"ARG_OF_PERICENTER":277.2278,"MEAN_ANOMALY":82.8548,"EPHEMERIS_TYPE":0,"CLASSIFICATION_TYPE":"U","NORAD_CAT_ID":68130,"ELEMENT_SET_NO":999,"REV_AT_EPOCH":332,"BSTAR":7.4072e-5,"MEAN_MOTION_DOT":-6.4e-7,"MEAN_MOTION_DDOT":0},{"OBJECT_NAME":"GUOWANG GROUP 20 OBJECT C","OBJECT_ID":"2026-047C","EPOCH":"2026-04-05T14:41:01.209120","MEAN_MOTION":13.81638668,"ECCENTRICITY":0.0003062,"INCLINATION":49.9927,"RA_OF_ASC_NODE":321.8947,"ARG_OF_PERICENTER":305.5324,"MEAN_ANOMALY":54.5285,"EPHEMERIS_TYPE":0,"CLASSIFICATION_TYPE":"U","NORAD_CAT_ID":68131,"ELEMENT_SET_NO":999,"REV_AT_EPOCH":333,"BSTAR":4.4686e-5,"MEAN_MOTION_DOT":-9.5e-7,"MEAN_MOTION_DDOT":0},{"OBJECT_NAME":"GUOWANG GROUP 20 OBJECT D","OBJECT_ID":"2026-047D","EPOCH":"2026-04-05T19:48:56.363904","MEAN_MOTION":13.80675205,"ECCENTRICITY":4.67e-5,"INCLINATION":50.008,"RA_OF_ASC_NODE":320.9711,"ARG_OF_PERICENTER":277.3673,"MEAN_ANOMALY":82.7169,"EPHEMERIS_TYPE":0,"CLASSIFICATION_TYPE":"U","NORAD_CAT_ID":68132,"ELEMENT_SET_NO":999,"REV_AT_EPOCH":335,"BSTAR":5.2378e-5,"MEAN_MOTION_DOT":-8.7e-7,"MEAN_MOTION_DDOT":0},{"OBJECT_NAME":"GUOWANG GROUP 20 OBJECT E","OBJECT_ID":"2026-047E","EPOCH":"2026-04-05T14:31:21.903168","MEAN_MOTION":13.82123871,"ECCENTRICITY":8.38e-5,"INCLINATION":49.9866,"RA_OF_ASC_NODE":321.8183,"ARG_OF_PERICENTER":211.5594,"MEAN_ANOMALY":148.5251,"EPHEMERIS_TYPE":0,"CLASSIFICATION_TYPE":"U","NORAD_CAT_ID":68133,"ELEMENT_SET_NO":999,"REV_AT_EPOCH":333,"BSTAR":3.4459e-5,"MEAN_MOTION_DOT":-1.06e-6,"MEAN_MOTION_DDOT":0}]
